<?xml version="1.0" encoding="UTF-8"?>
<ndm xmlns:xsi="http://www.w3.org/2001/XMLSchema-instance" xsi:noNamespaceSchemaLocation="https://sanaregistry.org/r/ndmxml_unqualified/ndmxml-2.0.0-master-2.0.xsd">
<omm id="CCSDS_OMM_VERS" version="2.0">
<header><CREATION_DATE/><ORIGINATOR/></header><body><segment><metadata><OBJECT_NAME>ORBCOMM FM33</OBJECT_NAME><OBJECT_ID>1999-065D</OBJECT_ID><CENTER_NAME>EARTH</CENTER_NAME><REF_FRAME>TEME</REF_FRAME><TIME_SYSTEM>UTC</TIME_SYSTEM><MEAN_ELEMENT_THEORY>SGP4</MEAN_ELEMENT_THEORY></metadata><data><meanElements><EPOCH>2024-09-11T06:29:31.069536</EPOCH><MEAN_MOTION>14.38324330</MEAN_MOTION><ECCENTRICITY>.0006664</ECCENTRICITY><INCLINATION>45.0273</INCLINATION><RA_OF_ASC_NODE>243.5319</RA_OF_ASC_NODE><ARG_OF_PERICENTER>89.4380</ARG_OF_PERICENTER><MEAN_ANOMALY>270.7232</MEAN_ANOMALY></meanElements><tleParameters><EPHEMERIS_TYPE>0</EPHEMERIS_TYPE><CLASSIFICATION_TYPE>U</CLASSIFICATION_TYPE><NORAD_CAT_ID>25983</NORAD_CAT_ID><ELEMENT_SET_NO>999</ELEMENT_SET_NO><REV_AT_EPOCH>29595</REV_AT_EPOCH><BSTAR>.14859E-2</BSTAR><MEAN_MOTION_DOT>.4427E-4</MEAN_MOTION_DOT><MEAN_MOTION_DDOT>0</MEAN_MOTION_DDOT></tleParameters></data></segment></body></omm>
<omm id="CCSDS_OMM_VERS" version="2.0">
<header><CREATION_DATE/><ORIGINATOR/></header><body><segment><metadata><OBJECT_NAME>ORBCOMM FM36</OBJECT_NAME><OBJECT_ID>1999-065E</OBJECT_ID><CENTER_NAME>EARTH</CENTER_NAME><REF_FRAME>TEME</REF_FRAME><TIME_SYSTEM>UTC</TIME_SYSTEM><MEAN_ELEMENT_THEORY>SGP4</MEAN_ELEMENT_THEORY></metadata><data><meanElements><EPOCH>2024-09-11T11:44:57.145056</EPOCH><MEAN_MOTION>14.36311211</MEAN_MOTION><ECCENTRICITY>.0004267</ECCENTRICITY><INCLINATION>45.0403</INCLINATION><RA_OF_ASC_NODE>330.0856</RA_OF_ASC_NODE><ARG_OF_PERICENTER>304.3938</ARG_OF_PERICENTER><MEAN_ANOMALY>55.6507</MEAN_ANOMALY></meanElements><tleParameters><EPHEMERIS_TYPE>0</EPHEMERIS_TYPE><CLASSIFICATION_TYPE>U</CLASSIFICATION_TYPE><NORAD_CAT_ID>25984</NORAD_CAT_ID><ELEMENT_SET_NO>999</ELEMENT_SET_NO><REV_AT_EPOCH>29491</REV_AT_EPOCH><BSTAR>.16206E-2</BSTAR><MEAN_MOTION_DOT>.4643E-4</MEAN_MOTION_DOT><MEAN_MOTION_DDOT>0</MEAN_MOTION_DDOT></tleParameters></data></segment></body></omm>
<omm id="CCSDS_OMM_VERS" version="2.0">
<header><CREATION_DATE/><ORIGINATOR/></header><body><segment><metadata><OBJECT_NAME>ORBCOMM FM35</OBJECT_NAME><OBJECT_ID>1999-065F</OBJECT_ID><CENTER_NAME>EARTH</CENTER_NAME><REF_FRAME>TEME</REF_FRAME><TIME_SYSTEM>UTC</TIME_SYSTEM><MEAN_ELEMENT_THEORY>SGP4</MEAN_ELEMENT_THEORY></metadata><data><meanElements><EPOCH>2024-09-11T12:07:47.374752</EPOCH><MEAN_MOTION>14.35694906</MEAN_MOTION><ECCENTRICITY>.0001282</ECCENTRICITY><INCLINATION>45.0404</INCLINATION><RA_OF_ASC_NODE>333.1386</RA_OF_ASC_NODE><ARG_OF_PERICENTER>102.2771</ARG_OF_PERICENTER><MEAN_ANOMALY>257.8221</MEAN_ANOMALY></meanElements><tleParameters><EPHEMERIS_TYPE>0</EPHEMERIS_TYPE><CLASSIFICATION_TYPE>U</CLASSIFICATION_TYPE><NORAD_CAT_ID>25985</NORAD_CAT_ID><ELEMENT_SET_NO>999</ELEMENT_SET_NO><REV_AT_EPOCH>29490</REV_AT_EPOCH><BSTAR>.14465E-2</BSTAR><MEAN_MOTION_DOT>.4076E-4</MEAN_MOTION_DOT><MEAN_MOTION_DDOT>0</MEAN_MOTION_DDOT></tleParameters></data></segment></body></omm>
<omm id="CCSDS_OMM_VERS" version="2.0">
<header><CREATION_DATE/><ORIGINATOR/></header><body><segment><metadata><OBJECT_NAME>ORBCOMM FM34</OBJECT_NAME><OBJECT_ID>1999-065G</OBJECT_ID><CENTER_NAME>EARTH</CENTER_NAME><REF_FRAME>TEME</REF_FRAME><TIME_SYSTEM>UTC</TIME_SYSTEM><MEAN_ELEMENT_THEORY>SGP4</MEAN_ELEMENT_THEORY></metadata><data><meanElements><EPOCH>2024-09-11T04:47:02.874048</EPOCH><MEAN_MOTION>14.35687535</MEAN_MOTION><ECCENTRICITY>.0002555</ECCENTRICITY><INCLINATION>45.0396</INCLINATION><RA_OF_ASC_NODE>335.1325</RA_OF_ASC_NODE><ARG_OF_PERICENTER>346.7478</ARG_OF_PERICENTER><MEAN_ANOMALY>13.3303</MEAN_ANOMALY></meanElements><tleParameters><EPHEMERIS_TYPE>0</EPHEMERIS_TYPE><CLASSIFICATION_TYPE>U</CLASSIFICATION_TYPE><NORAD_CAT_ID>25986</NORAD_CAT_ID><ELEMENT_SET_NO>999</ELEMENT_SET_NO><REV_AT_EPOCH>29482</REV_AT_EPOCH><BSTAR>.13798E-2</BSTAR><MEAN_MOTION_DOT>.3881E-4</MEAN_MOTION_DOT><MEAN_MOTION_DDOT>0</MEAN_MOTION_DDOT></tleParameters></data></segment></body></omm>
<omm id="CCSDS_OMM_VERS" version="2.0">
<header><CREATION_DATE/><ORIGINATOR/></header><body><segment><metadata><OBJECT_NAME>ORBCOMM FM38</OBJECT_NAME><OBJECT_ID>2008-031A</OBJECT_ID><CENTER_NAME>EARTH</CENTER_NAME><REF_FRAME>TEME</REF_FRAME><TIME_SYSTEM>UTC</TIME_SYSTEM><MEAN_ELEMENT_THEORY>SGP4</MEAN_ELEMENT_THEORY></metadata><data><meanElements><EPOCH>2024-09-11T05:10:35.993568</EPOCH><MEAN_MOTION>14.78606637</MEAN_MOTION><ECCENTRICITY>.0005453</ECCENTRICITY><INCLINATION>48.4395</INCLINATION><RA_OF_ASC_NODE>202.3385</RA_OF_ASC_NODE><ARG_OF_PERICENTER>283.7862</ARG_OF_PERICENTER><MEAN_ANOMALY>76.2446</MEAN_ANOMALY></meanElements><tleParameters><EPHEMERIS_TYPE>0</EPHEMERIS_TYPE><CLASSIFICATION_TYPE>U</CLASSIFICATION_TYPE><NORAD_CAT_ID>33060</NORAD_CAT_ID><ELEMENT_SET_NO>999</ELEMENT_SET_NO><REV_AT_EPOCH>87341</REV_AT_EPOCH><BSTAR>.10126E-2</BSTAR><MEAN_MOTION_DOT>.7291E-4</MEAN_MOTION_DOT><MEAN_MOTION_DDOT>0</MEAN_MOTION_DDOT></tleParameters></data></segment></body></omm>
<omm id="CCSDS_OMM_VERS" version="2.0">
<header><CREATION_DATE/><ORIGINATOR/></header><body><segment><metadata><OBJECT_NAME>ORBCOMM FM41</OBJECT_NAME><OBJECT_ID>2008-031B</OBJECT_ID><CENTER_NAME>EARTH</CENTER_NAME><REF_FRAME>TEME</REF_FRAME><TIME_SYSTEM>UTC</TIME_SYSTEM><MEAN_ELEMENT_THEORY>SGP4</MEAN_ELEMENT_THEORY></metadata><data><meanElements><EPOCH>2024-09-11T07:31:16.476096</EPOCH><MEAN_MOTION>14.78315693</MEAN_MOTION><ECCENTRICITY>.0004596</ECCENTRICITY><INCLINATION>48.4427</INCLINATION><RA_OF_ASC_NODE>208.7930</RA_OF_ASC_NODE><ARG_OF_PERICENTER>270.6471</ARG_OF_PERICENTER><MEAN_ANOMALY>242.6851</MEAN_ANOMALY></meanElements><tleParameters><EPHEMERIS_TYPE>0</EPHEMERIS_TYPE><CLASSIFICATION_TYPE>U</CLASSIFICATION_TYPE><NORAD_CAT_ID>33061</NORAD_CAT_ID><ELEMENT_SET_NO>999</ELEMENT_SET_NO><REV_AT_EPOCH>87337</REV_AT_EPOCH><BSTAR>.92559E-3</BSTAR><MEAN_MOTION_DOT>.6599E-4</MEAN_MOTION_DOT><MEAN_MOTION_DDOT>0</MEAN_MOTION_DDOT></tleParameters></data></segment></body></omm>
<omm id="CCSDS_OMM_VERS" version="2.0">
<header><CREATION_DATE/><ORIGINATOR/></header><body><segment><metadata><OBJECT_NAME>ORBCOMM FM29</OBJECT_NAME><OBJECT_ID>2008-031C</OBJECT_ID><CENTER_NAME>EARTH</CENTER_NAME><REF_FRAME>TEME</REF_FRAME><TIME_SYSTEM>UTC</TIME_SYSTEM><MEAN_ELEMENT_THEORY>SGP4</MEAN_ELEMENT_THEORY></metadata><data><meanElements><EPOCH>2024-09-11T10:35:12.570144</EPOCH><MEAN_MOTION>14.78282835</MEAN_MOTION><ECCENTRICITY>.0006443</ECCENTRICITY><INCLINATION>48.4376</INCLINATION><RA_OF_ASC_NODE>216.2156</RA_OF_ASC_NODE><ARG_OF_PERICENTER>269.5988</ARG_OF_PERICENTER><MEAN_ANOMALY>242.9063</MEAN_ANOMALY></meanElements><tleParameters><EPHEMERIS_TYPE>0</EPHEMERIS_TYPE><CLASSIFICATION_TYPE>U</CLASSIFICATION_TYPE><NORAD_CAT_ID>33062</NORAD_CAT_ID><ELEMENT_SET_NO>999</ELEMENT_SET_NO><REV_AT_EPOCH>87325</REV_AT_EPOCH><BSTAR>.1036E-2</BSTAR><MEAN_MOTION_DOT>.7407E-4</MEAN_MOTION_DOT><MEAN_MOTION_DDOT>0</MEAN_MOTION_DDOT></tleParameters></data></segment></body></omm>
<omm id="CCSDS_OMM_VERS" version="2.0">
<header><CREATION_DATE/><ORIGINATOR/></header><body><segment><metadata><OBJECT_NAME>ORBCOMM FM39</OBJECT_NAME><OBJECT_ID>2008-031D</OBJECT_ID><CENTER_NAME>EARTH</CENTER_NAME><REF_FRAME>TEME</REF_FRAME><TIME_SYSTEM>UTC</TIME_SYSTEM><MEAN_ELEMENT_THEORY>SGP4</MEAN_ELEMENT_THEORY></metadata><data><meanElements><EPOCH>2024-09-11T09:34:32.021472</EPOCH><MEAN_MOTION>14.77152713</MEAN_MOTION><ECCENTRICITY>.0007305</ECCENTRICITY><INCLINATION>48.4391</INCLINATION><RA_OF_ASC_NODE>237.9231</RA_OF_ASC_NODE><ARG_OF_PERICENTER>245.2508</ARG_OF_PERICENTER><MEAN_ANOMALY>114.7646</MEAN_ANOMALY></meanElements><tleParameters><EPHEMERIS_TYPE>0</EPHEMERIS_TYPE><CLASSIFICATION_TYPE>U</CLASSIFICATION_TYPE><NORAD_CAT_ID>33063</NORAD_CAT_ID><ELEMENT_SET_NO>999</ELEMENT_SET_NO><REV_AT_EPOCH>87296</REV_AT_EPOCH><BSTAR>.91631E-3</BSTAR><MEAN_MOTION_DOT>.6351E-4</MEAN_MOTION_DOT><MEAN_MOTION_DDOT>0</MEAN_MOTION_DDOT></tleParameters></data></segment></body></omm>

</ndm>
