ORBCOMM FM33            
1 25983U 99065D   24255.27049849  .00004427  00000+0  14859-2 0  9992
2 25983  45.0273 243.5319 0006664  89.4380 270.7232 14.38324330295955
ORBCOMM FM36            
1 25984U 99065E   24255.48955029  .00004643  00000+0  16206-2 0  9990
2 25984  45.0403 330.0856 0004267 304.3938  55.6507 14.36311211294916
ORBCOMM FM35            
1 25985U 99065F   24255.50540943  .00004076  00000+0  14465-2 0  9994
2 25985  45.0404 333.1386 0001282 102.2771 257.8221 14.35694906294906
ORBCOMM FM34            
1 25986U 99065G   24255.19933882  .00003881  00000+0  13798-2 0  9999
2 25986  45.0396 335.1325 0002555 346.7478  13.3303 14.35687535294822
ORBCOMM FM38            
1 33060U 08031A   24255.21569437  .00007291  00000+0  10126-2 0  9999
2 33060  48.4395 202.3385 0005453 283.7862  76.2446 14.78606637873413
ORBCOMM FM41            
1 33061U 08031B   24255.31338514  .00006599  00000+0  92559-3 0  9992
2 33061  48.4427 208.7930 0004596 270.6471 242.6851 14.78315693873377
ORBCOMM FM29            
1 33062U 08031C   24255.44111771  .00007407  00000+0  10360-2 0  9999
2 33062  48.4376 216.2156 0006443 269.5988 242.9063 14.78282835873254
ORBCOMM FM39            
1 33063U 08031D   24255.39898173  .00006351  00000+0  91631-3 0  9990
2 33063  48.4391 237.9231 0007305 245.2508 114.7646 14.77152713872963
